GSAT0101 (GALILEO-PFM)  
1 37846U 11060A   26196.59103932 -.00000101  00000+0  00000+0 0  9993
2 37846  56.9841 340.9916 0002223  61.9424 298.0655  1.70475567 91603
GSAT0102 (GALILEO-FM2)  
1 37847U 11060B   26196.51364557 -.00000101  00000+0  00000+0 0  9998
2 37847  56.9849 340.9943 0002108   7.4765 350.6813  1.70475846 91608
GSAT0103 (GALILEO-FM3)  
1 38857U 12055A   26197.21850469 -.00000026  00000+0  00000+0 0  9991
2 38857  55.8227 100.7486 0003594 314.9576  45.0469  1.70473424 85502
GSAT0201 (GALILEO 5)    
1 40128U 14050A   26196.98314951 -.00000037  00000+0  00000+0 0  9998
2 40128  48.8430 272.2541 1678709 180.5497 179.3011  1.85519415 78858
GSAT0202 (GALILEO 6)    
1 40129U 14050B   26197.77756752 -.00000044  00000+0  00000+0 0  9994
2 40129  48.8597 271.3072 1679996 181.2736 178.2966  1.85520382 81031
GSAT0203 (GALILEO 7)    
1 40544U 15017A   26198.12850753 -.00000104  00000+0  00000+0 0  9992
2 40544  56.7761 340.7804 0002701 254.9804 104.9775  1.70476213 69716
GSAT0204 (GALILEO 8)    
1 40545U 15017B   26197.79779682 -.00000103  00000+0  00000+0 0  9995
2 40545  56.7840 340.8081 0002829 234.6469 125.3139  1.70475714 32756
GSAT0206 (GALILEO 10)   
1 40890U 15045B   26197.78640922  .00000048  00000+0  00000+0 0  9999
2 40890  54.9385 220.7865 0002262 327.7315  32.3020  1.70473544 67544
GSAT0209 (GALILEO 12)   
1 41174U 15079A   26197.95479092 -.00000027  00000+0  00000+0 0  9997
2 41174  55.8441 100.4450 0004723 356.6958   3.3383  1.70473553 65284
GSAT0208 (GALILEO 11)   
1 41175U 15079B   26195.82875918 -.00000028  00000+0  00000+0 0  9990
2 41175  55.8401 100.5005 0004360 357.6027   2.4215  1.70473443 65667
GSAT0211 (GALILEO 14)   
1 41549U 16030A   26197.71212509  .00000049  00000+0  00000+0 0  9996
2 41549  55.0897 220.8821 0003438 318.8981  41.1241  1.70473723 63172
GSAT0210 (GALILEO 13)   
1 41550U 16030B   26197.96936534  .00000048  00000+0  00000+0 0  9995
2 41550  55.0882 220.8733 0004721 246.2569 113.7400  1.70473885 63174
GSAT0207 (GALILEO 15)   
1 41859U 16069A   26196.48823801 -.00000027  00000+0  00000+0 0  9995
2 41859  55.5148 100.3030 0004567 339.1852  20.8267  1.70473446 59888
GSAT0212 (GALILEO 16)   
1 41860U 16069B   26195.75505462 -.00000028  00000+0  00000+0 0  9997
2 41860  55.5126 100.3182 0004383  15.0007 345.0382  1.70473579 60128
GSAT0213 (GALILEO 17)   
1 41861U 16069C   26194.36243565 -.00000031  00000+0  00000+0 0  9991
2 41861  55.5134 100.3648 0004126 318.6741  41.3115  1.70474037 59967
GSAT0214 (GALILEO 18)   
1 41862U 16069D   26195.09530723 -.00000030  00000+0  00000+0 0  9997
2 41862  55.5122 100.3371 0003296 333.1197  26.8847  1.70473685 60108
GSAT0215 (GALILEO 19)   
1 43055U 17079A   26196.17143387  .00000059  00000+0  00000+0 0  9991
2 43055  55.0676 220.7362 0003831 269.4103  90.6058  1.70474281 53460
GSAT0216 (GALILEO 20)   
1 43056U 17079B   26197.04913653  .00000052  00000+0  00000+0 0  9993
2 43056  55.0677 220.7120 0004910 277.5632  82.4337  1.70474464 53495
GSAT0217 (GALILEO 21)   
1 43057U 17079C   26194.92364590  .00000071  00000+0  00000+0 0  9999
2 43057  55.0663 220.7682 0005177 287.6925  72.3210  1.70474255 53448
GSAT0218 (GALILEO 22)   
1 43058U 17079D   26196.90343938  .00000053  00000+0  00000+0 0  9993
2 43058  55.0660 220.7113 0005401 274.7995  85.1927  1.70474408 53503
GSAT0221 (GALILEO 25)   
1 43564U 18060A   26197.98071918 -.00000103  00000+0  00000+0 0  9998
2 43564  57.1587 340.9767 0002693 283.8087  76.1486  1.70476125 49670
GSAT0222 (GALILEO 26)   
1 43565U 18060B   26198.20041874 -.00000104  00000+0  00000+0 0  9994
2 43565  57.1621 340.9745 0002852 234.9937 124.9673  1.70475898 49726
GSAT0219 (GALILEO 23)   
1 43566U 18060C   26196.66151734 -.00000101  00000+0  00000+0 0  9997
2 43566  57.1620 341.0175 0001836 298.1228  61.8439  1.70476050 49675
GSAT0220 (GALILEO 24)   
1 43567U 18060D   26198.05570153 -.00000103  00000+0  00000+0 0  9995
2 43567  57.1613 340.9792 0002156 287.6741  72.2898  1.70475831 49682
GSAT0223 (GALILEO 27)   
1 49809U 21116A   26197.91381390 -.00000103  00000+0  00000+0 0  9993
2 49809  57.1499 340.8723 0002440 195.3183 168.4273  1.70476073 28695
GSAT0224 (GALILEO 28)   
1 49810U 21116B   26197.72723839 -.00000103  00000+0  00000+0 0  9992
2 49810  57.1497 340.8759 0001842 181.9610 179.9110  1.70476111 28718
GSAT0225 (GALILEO 29)   
1 59598U 24079A   26198.02265471 -.00000028  00000+0  00000+0 0  9990
2 59598  55.1373 100.2459 0000523 335.7440 200.6347  1.70473788 13820
GSAT0227 (GALILEO 30)   
1 59600U 24079C   26194.98582021 -.00000030  00000+0  00000+0 0  9991
2 59600  55.1303 100.3294 0002845  67.2681 292.7822  1.70473814 13828
GSAT0232 (GALILEO 32)   
1 61182U 24167A   26197.61460391  .00000049  00000+0  00000+0 0  9994
2 61182  55.1789 220.5058 0006489 233.0865 155.9296  1.70474030 11387
GSAT0226 (GALILEO 31)   
1 61183U 24167B   26196.54067126  .00000056  00000+0  00000+0 0  9993
2 61183  55.1780 220.5424 0003207 236.6774 304.5756  1.70474006 11330
GSAT0233 (GALILEO 33)   
1 67160U 25302A   26197.55910839 -.00000028  00000+0  00000+0 0  9996
2 67160  54.3515 101.2938 0000972 153.0482  29.7567  1.70473838  3628
GSAT0234 (GALILEO 34)   
1 67162U 25302C   26197.84918500 -.00000028  00000+0  00000+0 0  9993
2 67162  54.3544 101.2845 0002216 322.1435 218.7937  1.70473930  3689
